[{"OBJECT_NAME":"SEEDS II (CO-66)","OBJECT_ID":"2008-021J","EPOCH":"2026-03-09T22:06:22.421376","MEAN_MOTION":15.29097236,"ECCENTRICITY":0.00014475,"INCLINATION":97.7519,"RA_OF_ASC_NODE":62.3611,"ARG_OF_PERICENTER":359.2618,"MEAN_ANOMALY":0.8619,"EPHEMERIS_TYPE":0,"CLASSIFICATION_TYPE":"U","NORAD_CAT_ID":32791,"ELEMENT_SET_NO":999,"REV_AT_EPOCH":97210,"BSTAR":0.00084213052,"MEAN_MOTION_DOT":0.00023758,"MEAN_MOTION_DDOT":0},{"OBJECT_NAME":"STARLINK-3697","OBJECT_ID":"2022-025G","EPOCH":"2026-03-09T04:53:08.115360","MEAN_MOTION":15.29354232,"ECCENTRICITY":0.00013821,"INCLINATION":53.157,"RA_OF_ASC_NODE":26.3329,"ARG_OF_PERICENTER":87.4855,"MEAN_ANOMALY":272.6303,"EPHEMERIS_TYPE":0,"CLASSIFICATION_TYPE":"U","NORAD_CAT_ID":51962,"ELEMENT_SET_NO":999,"REV_AT_EPOCH":22094,"BSTAR":1.860014e-6,"MEAN_MOTION_DOT":-3.02e-6,"MEAN_MOTION_DDOT":0}]
